start=new Date('2022-01-20T00:00:00.000Z').valueOf();
sats=[{"RCS_SIZE":"LARGE","EPOCH":"2022-01-19T11:56:06.599904","OBJECT_TYPE":"PAYLOAD","ELEMENT_SET_NO":"999","REF_FRAME":"TEME","ARG_OF_PERICENTER":"64.4544","TLE_LINE2":"2 46329  53.0555 296.1313 0001601  64.4544 295.6610 15.06388481 76960","SITE":"AFETR","PERIAPSIS":"546.140","FILE":"3277432","TIME_SYSTEM":"UTC","ECCENTRICITY":"0.00016010","INCLINATION":"53.0555","COUNTRY_CODE":"US","BSTAR":"0.00023735000000","SEMIMAJOR_AXIS":"6925.384","RA_OF_ASC_NODE":"296.1313","GP_ID":"194192985","EPHEMERIS_TYPE":"0","MEAN_ANOMALY":"295.6610","TLE_LINE1":"1 46329U 20062E   22019.49729861  .00003254  00000-0  23735-3 0  9991","OBJECT_NAME":"STARLINK-1695","APOAPSIS":"548.358","DECAY_DATE":null,"MEAN_MOTION":"15.06388481","NORAD_CAT_ID":"46329","MEAN_ELEMENT_THEORY":"SGP4","LAUNCH_DATE":"2020-09-03","CLASSIFICATION_TYPE":"U","PERIOD":"95.593","CENTER_NAME":"EARTH","MEAN_MOTION_DDOT":"0.0000000000000","REV_AT_EPOCH":"7696","OBJECT_ID":"2020-062E","MEAN_MOTION_DOT":"0.00003254"},{"FILE":"3277432","TIME_SYSTEM":"UTC","PERIAPSIS":"546.173","TLE_LINE2":"2 46330  53.0547 296.1820 0001573  60.4128 299.7017 15.06384049 76971","SITE":"AFETR","ARG_OF_PERICENTER":"60.4128","REF_FRAME":"TEME","ELEMENT_SET_NO":"999","RCS_SIZE":"LARGE","OBJECT_TYPE":"PAYLOAD","EPOCH":"2022-01-19T11:40:11.406432","EPHEMERIS_TYPE":"0","SEMIMAJOR_AXIS":"6925.397","BSTAR":"0.00015231000000","GP_ID":"194192736","RA_OF_ASC_NODE":"296.1820","INCLINATION":"53.0547","COUNTRY_CODE":"US","ECCENTRICITY":"0.00015730","MEAN_MOTION_DDOT":"0.0000000000000","PERIOD":"95.593","CENTER_NAME":"EARTH","LAUNCH_DATE":"2020-09-03","CLASSIFICATION_TYPE":"U","MEAN_ELEMENT_THEORY":"SGP4","MEAN_MOTION":"15.06384049","DECAY_DATE":null,"NORAD_CAT_ID":"46330","APOAPSIS":"548.352","TLE_LINE1":"1 46330U 20062F   22019.48624313  .00001987  00000-0  15231-3 0  9991","MEAN_ANOMALY":"299.7017","OBJECT_NAME":"STARLINK-1710","OBJECT_ID":"2020-062F","REV_AT_EPOCH":"7697","MEAN_MOTION_DOT":"0.00001987"},{"MEAN_ELEMENT_THEORY":"SGP4","LAUNCH_DATE":"2020-09-03","CLASSIFICATION_TYPE":"U","PERIOD":"95.592","CENTER_NAME":"EARTH","MEAN_MOTION_DDOT":"0.0000000000000","TLE_LINE1":"1 46331U 20062G   22019.52126064  .00008608  00000-0  59610-3 0  9993","OBJECT_NAME":"STARLINK-1719","MEAN_ANOMALY":"295.0577","APOAPSIS":"548.152","NORAD_CAT_ID":"46331","DECAY_DATE":null,"MEAN_MOTION":"15.06396924","MEAN_MOTION_DOT":"0.00008608","REV_AT_EPOCH":"7669","OBJECT_ID":"2020-062G","ARG_OF_PERICENTER":"65.0551","SITE":"AFETR","TLE_LINE2":"2 46331  53.0536 316.0426 0001341  65.0551 295.0577 15.06396924 76692","PERIAPSIS":"546.294","TIME_SYSTEM":"UTC","FILE":"3277432","EPOCH":"2022-01-19T12:30:36.919296","OBJECT_TYPE":"PAYLOAD","RCS_SIZE":"LARGE","ELEMENT_SET_NO":"999","REF_FRAME":"TEME","RA_OF_ASC_NODE":"316.0426","GP_ID":"194191984","BSTAR":"0.00059610000000","SEMIMAJOR_AXIS":"6925.358","EPHEMERIS_TYPE":"0","ECCENTRICITY":"0.00013410","COUNTRY_CODE":"US","INCLINATION":"53.0536"},{"MEAN_ELEMENT_THEORY":"SGP4","CLASSIFICATION_TYPE":"U","LAUNCH_DATE":"2020-09-03","PERIOD":"95.591","CENTER_NAME":"EARTH","MEAN_MOTION_DDOT":"0.0000000000000","MEAN_ANOMALY":"299.2440","TLE_LINE1":"1 46332U 20062H   22019.53231251  .00014669  00000-0  10013-2 0  9997","OBJECT_NAME":"STARLINK-1721","APOAPSIS":"548.445","DECAY_DATE":null,"MEAN_MOTION":"15.06410926","NORAD_CAT_ID":"46332","REV_AT_EPOCH":"7669","OBJECT_ID":"2020-062H","MEAN_MOTION_DOT":"0.00014669","ARG_OF_PERICENTER":"60.8732","TLE_LINE2":"2 46332  53.0555 315.9767 0001826  60.8732 299.2440 15.06410926 76696","SITE":"AFETR","PERIAPSIS":"545.916","FILE":"3277432","TIME_SYSTEM":"UTC","RCS_SIZE":"LARGE","EPOCH":"2022-01-19T12:46:31.800864","OBJECT_TYPE":"PAYLOAD","ELEMENT_SET_NO":"999","REF_FRAME":"TEME","BSTAR":"0.00100130000000","SEMIMAJOR_AXIS":"6925.315","RA_OF_ASC_NODE":"315.9767","GP_ID":"194192234","EPHEMERIS_TYPE":"0","ECCENTRICITY":"0.00018260","INCLINATION":"53.0555","COUNTRY_CODE":"US"},{"ECCENTRICITY":"0.00015510","INCLINATION":"53.0546","COUNTRY_CODE":"US","BSTAR":"0.00103600000000","SEMIMAJOR_AXIS":"6925.339","GP_ID":"194198458","RA_OF_ASC_NODE":"315.9210","EPHEMERIS_TYPE":"0","RCS_SIZE":"LARGE","EPOCH":"2022-01-19T13:07:46.573248","OBJECT_TYPE":"PAYLOAD","ELEMENT_SET_NO":"999","REF_FRAME":"TEME","ARG_OF_PERICENTER":"71.4073","PERIAPSIS":"546.130","TLE_LINE2":"2 46333  53.0546 315.9210 0001551  71.4073 288.7085 15.06403090 76873","SITE":"AFETR","FILE":"3277741","TIME_SYSTEM":"UTC","REV_AT_EPOCH":"7687","OBJECT_ID":"2020-062J","MEAN_MOTION_DOT":"0.00015185","TLE_LINE1":"1 46333U 20062J   22019.54706682  .00015185  00000-0  10360-2 0  9993","MEAN_ANOMALY":"288.7085","OBJECT_NAME":"STARLINK-1723","APOAPSIS":"548.278","DECAY_DATE":null,"MEAN_MOTION":"15.06403090","NORAD_CAT_ID":"46333","MEAN_ELEMENT_THEORY":"SGP4","LAUNCH_DATE":"2020-09-03","CLASSIFICATION_TYPE":"U","CENTER_NAME":"EARTH","PERIOD":"95.592","MEAN_MOTION_DDOT":"0.0000000000000"},{"MEAN_MOTION_DDOT":"0.0000000000000","PERIOD":"95.593","CENTER_NAME":"EARTH","LAUNCH_DATE":"2020-09-03","CLASSIFICATION_TYPE":"U","MEAN_ELEMENT_THEORY":"SGP4","NORAD_CAT_ID":"46334","MEAN_MOTION":"15.06383553","DECAY_DATE":null,"APOAPSIS":"548.428","TLE_LINE1":"1 46334U 20062K   22019.45581102  .00001646  00000-0  12942-3 0  9998","MEAN_ANOMALY":"300.5253","OBJECT_NAME":"STARLINK-1725","MEAN_MOTION_DOT":"0.00001646","OBJECT_ID":"2020-062K","REV_AT_EPOCH":"7696","TIME_SYSTEM":"UTC","FILE":"3277432","TLE_LINE2":"2 46334  53.0550 296.3152 0001681  59.5902 300.5253 15.06383553 76969","SITE":"AFETR","PERIAPSIS":"546.100","ARG_OF_PERICENTER":"59.5902","REF_FRAME":"TEME","ELEMENT_SET_NO":"999","OBJECT_TYPE":"PAYLOAD","EPOCH":"2022-01-19T10:56:22.072128","RCS_SIZE":"LARGE","EPHEMERIS_TYPE":"0","GP_ID":"194193236","RA_OF_ASC_NODE":"296.3152","SEMIMAJOR_AXIS":"6925.399","BSTAR":"0.00012942000000","COUNTRY_CODE":"US","INCLINATION":"53.0550","ECCENTRICITY":"0.00016810"},{"TIME_SYSTEM":"UTC","FILE":"3277742","ARG_OF_PERICENTER":"59.5101","TLE_LINE2":"2 46335  53.0561 316.0759 0001544  59.5101 300.6040 15.06405977 76874","SITE":"AFETR","PERIAPSIS":"546.126","ELEMENT_SET_NO":"999","REF_FRAME":"TEME","EPOCH":"2022-01-19T12:14:41.696448","OBJECT_TYPE":"PAYLOAD","RCS_SIZE":"LARGE","EPHEMERIS_TYPE":"0","RA_OF_ASC_NODE":"316.0759","GP_ID":"194198476","BSTAR":"0.00102730000000","SEMIMAJOR_AXIS":"6925.330","COUNTRY_CODE":"US","INCLINATION":"53.0561","ECCENTRICITY":"0.00015440","CENTER_NAME":"EARTH","PERIOD":"95.592","MEAN_MOTION_DDOT":"0.0000000000000","MEAN_ELEMENT_THEORY":"SGP4","CLASSIFICATION_TYPE":"U","LAUNCH_DATE":"2020-09-03","NORAD_CAT_ID":"46335","DECAY_DATE":null,"MEAN_MOTION":"15.06405977","OBJECT_NAME":"STARLINK-1727","TLE_LINE1":"1 46335U 20062L   22019.51020482  .00015056  00000-0  10273-2 0  9999","MEAN_ANOMALY":"300.6040","APOAPSIS":"548.265","MEAN_MOTION_DOT":"0.00015056","REV_AT_EPOCH":"7687","OBJECT_ID":"2020-062L"},{"RCS_SIZE":"LARGE","EPOCH":"2022-01-19T16:48:03.806784","OBJECT_TYPE":"PAYLOAD","ELEMENT_SET_NO":"999","REF_FRAME":"TEME","ARG_OF_PERICENTER":"49.9601","PERIAPSIS":"546.153","TLE_LINE2":"2 46336  53.0551 295.2358 0001635  49.9601 310.1531 15.06376653 77180","SITE":"AFETR","FILE":"3277742","TIME_SYSTEM":"UTC","ECCENTRICITY":"0.00016350","INCLINATION":"53.0551","COUNTRY_CODE":"US","BSTAR":"0.00022894000000","SEMIMAJOR_AXIS":"6925.420","RA_OF_ASC_NODE":"295.2358","GP_ID":"194198487","EPHEMERIS_TYPE":"0","MEAN_ANOMALY":"310.1531","TLE_LINE1":"1 46336U 20062M   22019.70004406  .00003128  00000-0  22894-3 0  9999","OBJECT_NAME":"STARLINK-1738","APOAPSIS":"548.417","DECAY_DATE":null,"MEAN_MOTION":"15.06376653","NORAD_CAT_ID":"46336","MEAN_ELEMENT_THEORY":"SGP4","CLASSIFICATION_TYPE":"U","LAUNCH_DATE":"2020-09-03","PERIOD":"95.594","CENTER_NAME":"EARTH","MEAN_MOTION_DDOT":"0.0000000000000","REV_AT_EPOCH":"7718","OBJECT_ID":"2020-062M","MEAN_MOTION_DOT":"0.00003128"},{"FILE":"3277742","TIME_SYSTEM":"UTC","TLE_LINE2":"2 46337  53.0542 297.5314 0001493  64.0673 296.0470 15.06393312 77104","SITE":"AFETR","PERIAPSIS":"546.200","ARG_OF_PERICENTER":"64.0673","REF_FRAME":"TEME","ELEMENT_SET_NO":"999","RCS_SIZE":"LARGE","OBJECT_TYPE":"PAYLOAD","EPOCH":"2022-01-19T04:24:55.827072","EPHEMERIS_TYPE":"0","SEMIMAJOR_AXIS":"6925.369","BSTAR":"0.00022765000000","GP_ID":"194198488","RA_OF_ASC_NODE":"297.5314","INCLINATION":"53.0542","COUNTRY_CODE":"US","ECCENTRICITY":"0.00014930","MEAN_MOTION_DDOT":"0.0000000000000","PERIOD":"95.593","CENTER_NAME":"EARTH","LAUNCH_DATE":"2020-09-03","CLASSIFICATION_TYPE":"U","MEAN_ELEMENT_THEORY":"SGP4","MEAN_MOTION":"15.06393312","DECAY_DATE":null,"NORAD_CAT_ID":"46337","APOAPSIS":"548.268","MEAN_ANOMALY":"296.0470","TLE_LINE1":"1 46337U 20062N   22019.18397948  .00003110  00000-0  22765-3 0  9996","OBJECT_NAME":"STARLINK-1750","OBJECT_ID":"2020-062N","REV_AT_EPOCH":"7710","MEAN_MOTION_DOT":"0.00003110"},{"INCLINATION":"53.0563","COUNTRY_CODE":"US","ECCENTRICITY":"0.00017560","EPHEMERIS_TYPE":"0","SEMIMAJOR_AXIS":"6925.407","BSTAR":"0.00018486000000","RA_OF_ASC_NODE":"317.0128","GP_ID":"194192737","REF_FRAME":"TEME","ELEMENT_SET_NO":"999","RCS_SIZE":"LARGE","OBJECT_TYPE":"PAYLOAD","EPOCH":"2022-01-19T07:12:09.156672","FILE":"3277432","TIME_SYSTEM":"UTC","PERIAPSIS":"546.056","TLE_LINE2":"2 46338  53.0563 317.0128 0001756  57.9516 302.1644 15.06380845 76656","SITE":"AFETR","ARG_OF_PERICENTER":"57.9516","OBJECT_ID":"2020-062P","REV_AT_EPOCH":"7665","MEAN_MOTION_DOT":"0.00002472","MEAN_MOTION":"15.06380845","DECAY_DATE":null,"NORAD_CAT_ID":"46338","APOAPSIS":"548.488","TLE_LINE1":"1 46338U 20062P   22019.30010598  .00002472  00000-0  18486-3 0  9999","MEAN_ANOMALY":"302.1644","OBJECT_NAME":"STARLINK-1752","MEAN_MOTION_DDOT":"0.0000000000000","CENTER_NAME":"EARTH","PERIOD":"95.593","CLASSIFICATION_TYPE":"U","LAUNCH_DATE":"2020-09-03","MEAN_ELEMENT_THEORY":"SGP4"}];
